{
    "links": {
        "self": "http://www.neowsapp.com/rest/v1/neo/3829468?api_key=iIulBulltgU6a56xZRHN4H3l9WmuAYTsLGpBGhQ2"
    },
    "id": "3829468",
    "neo_reference_id": "3829468",
    "name": "(2018 RL7)",
    "designation": "2018 RL7",
    "nasa_jpl_url": "http://ssd.jpl.nasa.gov/sbdb.cgi?sstr=3829468",
    "absolute_magnitude_h": 24.4,
    "estimated_diameter": {
        "kilometers": {
            "estimated_diameter_min": 0.0350392641,
            "estimated_diameter_max": 0.0783501764
        },
        "meters": {
            "estimated_diameter_min": 35.0392641108,
            "estimated_diameter_max": 78.3501764334
        },
        "miles": {
            "estimated_diameter_min": 0.0217723826,
            "estimated_diameter_max": 0.0486845275
        },
        "feet": {
            "estimated_diameter_min": 114.9582192654,
            "estimated_diameter_max": 257.0543928497
        }
    },
    "is_potentially_hazardous_asteroid": false,
    "close_approach_data": [
        {
            "close_approach_date": "2018-09-23",
            "close_approach_date_full": "2018-Sep-23 08:08",
            "epoch_date_close_approach": 1537690080000,
            "relative_velocity": {
                "kilometers_per_second": "14.5825792459",
                "kilometers_per_hour": "52497.2852854153",
                "miles_per_hour": "32619.7715152626"
            },
            "miss_distance": {
                "astronomical": "0.0564675925",
                "lunar": "21.9658934825",
                "kilometers": "8447431.562027975",
                "miles": "5248990.573717055"
            },
            "orbiting_body": "Earth"
        }
    ],
    "orbital_data": {
        "orbit_id": "2",
        "orbit_determination_date": "2018-09-18 07:28:28",
        "first_observation_date": "2018-09-13",
        "last_observation_date": "2018-09-18",
        "data_arc_in_days": 5,
        "observations_used": 26,
        "orbit_uncertainty": "9",
        "minimum_orbit_intersection": ".0114977",
        "jupiter_tisserand_invariant": "4.198",
        "epoch_osculation": "2458376.5",
        "eccentricity": ".5074325709653191",
        "semi_major_axis": "1.603169615981346",
        "inclination": "5.32212636709941",
        "ascending_node_longitude": "11.29791556564494",
        "orbital_period": "741.4257016370173",
        "perihelion_distance": ".789669136050448",
        "perihelion_argument": "60.96886356186199",
        "aphelion_distance": "2.416670095912243",
        "perihelion_time": "2458432.605259608627",
        "mean_anomaly": "332.758034399792",
        "mean_motion": ".4855510123335954",
        "equinox": "J2000",
        "orbit_class": {
            "orbit_class_type": "APO",
            "orbit_class_description": "Near-Earth asteroid orbits which cross the Earth’s orbit similar to that of 1862 Apollo",
            "orbit_class_range": "a (semi-major axis) > 1.0 AU; q (perihelion) < 1.017 AU"
        }
    },
    "is_sentry_object": false
}